[{"OBJECT_NAME":"IRIDIUM 158","OBJECT_ID":"2018-061C","EPOCH":"2026-03-09T15:12:46.379232","MEAN_MOTION":14.34217236,"ECCENTRICITY":0.0001997,"INCLINATION":86.3916,"RA_OF_ASC_NODE":98.4013,"ARG_OF_PERICENTER":90.655,"MEAN_ANOMALY":269.4875,"EPHEMERIS_TYPE":0,"CLASSIFICATION_TYPE":"U","NORAD_CAT_ID":43571,"ELEMENT_SET_NO":999,"REV_AT_EPOCH":39909,"BSTAR":-1.4507e-5,"MEAN_MOTION_DOT":-2.1e-7,"MEAN_MOTION_DDOT":0},{"OBJECT_NAME":"ARIANE 40 R\/B","OBJECT_ID":"1993-061H","EPOCH":"2026-03-09T18:26:30.161760","MEAN_MOTION":14.32860991,"ECCENTRICITY":0.0009538,"INCLINATION":98.4915,"RA_OF_ASC_NODE":137.6545,"ARG_OF_PERICENTER":284.8597,"MEAN_ANOMALY":75.1531,"EPHEMERIS_TYPE":0,"CLASSIFICATION_TYPE":"U","NORAD_CAT_ID":22830,"ELEMENT_SET_NO":999,"REV_AT_EPOCH":69411,"BSTAR":0.00010373604,"MEAN_MOTION_DOT":2.4e-6,"MEAN_MOTION_DDOT":0}]
